HIMAWARI-8              
1 40267U 14060A   24011.61439633 -.00000262  00000+0  00000+0 0  9992
2 40267   0.0510 226.5422 0000693  89.0581 156.8455  1.00271191 33865
